{"type": "FeatureCollection", "features": [ {"type": "Feature", "properties": {"norad_id": 41830, "name": "FENGYUN 1C DEB", "group": "fengyun-1c-debris", "lat": 17.784134179292934, "lon": -104.64567047606106, "alt_km": 765.7897134744635, "timestamp": "2025-12-26T12:57:39.563212+00:00", "meta": {"OBJECT_NAME": "FENGYUN 1C DEB", "OBJECT_ID": "1999-025EYH", "EPOCH": "2025-12-26T03:47:13.789536", "MEAN_MOTION": 14.26556074, "ECCENTRICITY": 0.00548122, "INCLINATION": 98.7549, "RA_OF_ASC_NODE": 72.1389, "ARG_OF_PERICENTER": 179.2327, "MEAN_ANOMALY": 180.8947, "EPHEMERIS_TYPE": 0, "CLASSIFICATION_TYPE": "U", "NORAD_CAT_ID": 41830, "ELEMENT_SET_NO": 999, "REV_AT_EPOCH": 47465, "BSTAR": 0.0016914631, "MEAN_MOTION_DOT": 4.103e-05, "MEAN_MOTION_DDOT": 0}, "tle": {"line1": "1 41830U 99025EYH 25360.15779849  .00004103  00000+0  16915-2 0  9998", "line2": "2 41830  98.7549  72.1389 0054812 179.2327 180.8947 14.26556074474654"}}, "geometry": {"type": "Point", "coordinates": [-104.64567047606106, 17.784134179292934]}}, {"type": "Feature", "properties": {"norad_id": 41831, "name": "FENGYUN 1C DEB", "group": "fengyun-1c-debris", "lat": -72.73017386785571, "lon": -142.3109774786216, "alt_km": 804.7208337502661, "timestamp": "2025-12-26T12:57:39.563221+00:00", "meta": {"OBJECT_NAME": "FENGYUN 1C DEB", "OBJECT_ID": "1999-025EYJ", "EPOCH": "2025-12-26T03:20:32.800992", "MEAN_MOTION": 14.24657287, "ECCENTRICITY": 0.00567905, "INCLINATION": 98.733, "RA_OF_ASC_NODE": 66.9221, "ARG_OF_PERICENTER": 183.2398, "MEAN_ANOMALY": 176.8421, "EPHEMERIS_TYPE": 0, "CLASSIFICATION_TYPE": "U", "NORAD_CAT_ID": 41831, "ELEMENT_SET_NO": 999, "REV_AT_EPOCH": 47450, "BSTAR": 0.0014593929, "MEAN_MOTION_DOT": 3.408e-05, "MEAN_MOTION_DDOT": 0}, "tle": {"line1": "1 41831U 99025EYJ 25360.13926853  .00003408  00000+0  14594-2 0  9994", "line2": "2 41831  98.7330  66.9221 0056790 183.2398 176.8421 14.24657287474501"}}, "geometry": {"type": "Point", "coordinates": [-142.3109774786216, -72.73017386785571]}}, {"type": "Feature", "properties": {"norad_id": 41832, "name": "FENGYUN 1C DEB", "group": "fengyun-1c-debris", "lat": -65.21600676558545, "lon": 83.90586580751948, "alt_km": 829.2785314905623, "timestamp": "2025-12-26T12:57:39.563232+00:00", "meta": {"OBJECT_NAME": "FENGYUN 1C DEB", "OBJECT_ID": "1999-025EYK", "EPOCH": "2025-12-26T03:09:37.749024", "MEAN_MOTION": 14.24329137, "ECCENTRICITY": 0.00560901, "INCLINATION": 98.7282, "RA_OF_ASC_NODE": 64.0666, "ARG_OF_PERICENTER": 187.8727, "MEAN_ANOMALY": 172.1577, "EPHEMERIS_TYPE": 0, "CLASSIFICATION_TYPE": "U", "NORAD_CAT_ID": 41832, "ELEMENT_SET_NO": 999, "REV_AT_EPOCH": 47541, "BSTAR": 0.0015340008, "MEAN_MOTION_DOT": 3.56e-05, "MEAN_MOTION_DDOT": 0}, "tle": {"line1": "1 41832U 99025EYK 25360.13168691  .00003560  00000+0  15340-2 0  9992", "line2": "2 41832  98.7282  64.0666 0056090 187.8727 172.1577 14.24329137475411"}}, "geometry": {"type": "Point", "coordinates": [83.90586580751948, -65.21600676558545]}}, {"type": "Feature", "properties": {"norad_id": 41833, "name": "FENGYUN 1C DEB", "group": "fengyun-1c-debris", "lat": -38.867880611970634, "lon": -117.04862718847447, "alt_km": 779.4149374868266, "timestamp": "2025-12-26T12:57:39.563242+00:00", "meta": {"OBJECT_NAME": "FENGYUN 1C DEB", "OBJECT_ID": "1999-025EYL", "EPOCH": "2025-12-26T03:30:59.762592", "MEAN_MOTION": 14.25916443, "ECCENTRICITY": 0.00550089, "INCLINATION": 98.7467, "RA_OF_ASC_NODE": 69.6865, "ARG_OF_PERICENTER": 185.3415, "MEAN_ANOMALY": 174.7185, "EPHEMERIS_TYPE": 0, "CLASSIFICATION_TYPE": "U", "NORAD_CAT_ID": 41833, "ELEMENT_SET_NO": 999, "REV_AT_EPOCH": 47555, "BSTAR": 0.0016909984, "MEAN_MOTION_DOT": 4.05e-05, "MEAN_MOTION_DDOT": 0}, "tle": {"line1": "1 41833U 99025EYL 25360.14652503  .00004050  00000+0  16910-2 0  9993", "line2": "2 41833  98.7467  69.6865 0055008 185.3415 174.7185 14.25916443475555"}}, "geometry": {"type": "Point", "coordinates": [-117.04862718847447, -38.867880611970634]}}, {"type": "Feature", "properties": {"norad_id": 43213, "name": "FENGYUN 1C DEB", "group": "fengyun-1c-debris", "lat": -34.10976806382917, "lon": 70.82352255344377, "alt_km": 847.5676649509032, "timestamp": "2025-12-26T12:57:39.563263+00:00", "meta": {"OBJECT_NAME": "FENGYUN 1C DEB", "OBJECT_ID": "1999-025EYM", "EPOCH": "2025-12-25T15:12:03.929184", "MEAN_MOTION": 14.23940421, "ECCENTRICITY": 0.0055617, "INCLINATION": 98.7316, "RA_OF_ASC_NODE": 63.9485, "ARG_OF_PERICENTER": 190.6764, "MEAN_ANOMALY": 169.3238, "EPHEMERIS_TYPE": 0, "CLASSIFICATION_TYPE": "U", "NORAD_CAT_ID": 43213, "ELEMENT_SET_NO": 999, "REV_AT_EPOCH": 40556, "BSTAR": 0.0015635, "MEAN_MOTION_DOT": 3.6e-05, "MEAN_MOTION_DDOT": 0}, "tle": {"line1": "1 43213U 99025EYM 25359.63337881  .00003600  00000+0  15635-2 0  9991", "line2": "2 43213  98.7316  63.9485 0055617 190.6764 169.3238 14.23940421405563"}}, "geometry": {"type": "Point", "coordinates": [70.82352255344377, -34.10976806382917]}}, {"type": "Feature", "properties": {"norad_id": 43214, "name": "FENGYUN 1C DEB", "group": "fengyun-1c-debris", "lat": -79.9028334190051, "lon": -174.52249311010672, "alt_km": 809.2913493590795, "timestamp": "2025-12-26T12:57:39.563274+00:00", "meta": {"OBJECT_NAME": "FENGYUN 1C DEB", "OBJECT_ID": "1999-025EYN", "EPOCH": "2025-12-26T03:17:34.287360", "MEAN_MOTION": 14.24220503, "ECCENTRICITY": 0.0056057, "INCLINATION": 98.7344, "RA_OF_ASC_NODE": 64.7671, "ARG_OF_PERICENTER": 188.8691, "MEAN_ANOMALY": 171.1502, "EPHEMERIS_TYPE": 0, "CLASSIFICATION_TYPE": "U", "NORAD_CAT_ID": 43214, "ELEMENT_SET_NO": 999, "REV_AT_EPOCH": 40594, "BSTAR": 0.0014660028, "MEAN_MOTION_DOT": 3.393e-05, "MEAN_MOTION_DDOT": 0}, "tle": {"line1": "1 43214U 99025EYN 25360.13720240  .00003393  00000+0  14660-2 0  9990", "line2": "2 43214  98.7344  64.7671 0056057 188.8691 171.1502 14.24220503405948"}}, "geometry": {"type": "Point", "coordinates": [-174.52249311010672, -79.9028334190051]}}, {"type": "Feature", "properties": {"norad_id": 43358, "name": "FENGYUN 1C DEB", "group": "fengyun-1c-debris", "lat": 14.986929000520762, "lon": -59.01332737780858, "alt_km": 833.7382210274909, "timestamp": "2025-12-26T12:57:39.563284+00:00", "meta": {"OBJECT_NAME": "FENGYUN 1C DEB", "OBJECT_ID": "1999-025EYP", "EPOCH": "2025-12-25T21:48:47.157696", "MEAN_MOTION": 13.40410393, "ECCENTRICITY": 0.0367445, "INCLINATION": 98.6876, "RA_OF_ASC_NODE": 118.0979, "ARG_OF_PERICENTER": 169.6436, "MEAN_ANOMALY": 191.2536, "EPHEMERIS_TYPE": 0, "CLASSIFICATION_TYPE": "U", "NORAD_CAT_ID": 43358, "ELEMENT_SET_NO": 999, "REV_AT_EPOCH": 53907, "BSTAR": 0.0018351, "MEAN_MOTION_DOT": 1.459e-05, "MEAN_MOTION_DDOT": 0}, "tle": {"line1": "1 43358U 99025EYP 25359.90887914  .00001459  00000+0  18351-2 0  9996", "line2": "2 43358  98.6876 118.0979 0367445 169.6436 191.2536 13.40410393539077"}}, "geometry": {"type": "Point", "coordinates": [-59.01332737780858, 14.986929000520762]}}, {"type": "Feature", "properties": {"norad_id": 43359, "name": "FENGYUN 1C DEB", "group": "fengyun-1c-debris", "lat": 60.1864809270463, "lon": -82.92995506763558, "alt_km": 851.1041645543319, "timestamp": "2025-12-26T12:57:39.563295+00:00", "meta": {"OBJECT_NAME": "FENGYUN 1C DEB", "OBJECT_ID": "1999-025EYQ", "EPOCH": "2025-12-25T04:21:01.480896", "MEAN_MOTION": 14.23267674, "ECCENTRICITY": 0.00734706, "INCLINATION": 99.052, "RA_OF_ASC_NODE": 79.5201, "ARG_OF_PERICENTER": 338.2051, "MEAN_ANOMALY": 21.6005, "EPHEMERIS_TYPE": 0, "CLASSIFICATION_TYPE": "U", "NORAD_CAT_ID": 43359, "ELEMENT_SET_NO": 999, "REV_AT_EPOCH": 47926, "BSTAR": 0.0020431863, "MEAN_MOTION_DOT": 4.711e-05, "MEAN_MOTION_DDOT": 0}, "tle": {"line1": "1 43359U 99025EYQ 25359.18126714  .00004711  00000+0  20432-2 0  9998", "line2": "2 43359  99.0520  79.5201 0073470 338.2051  21.6005 14.23267674479262"}}, "geometry": {"type": "Point", "coordinates": [-82.92995506763558, 60.1864809270463]}}, {"type": "Feature", "properties": {"norad_id": 45526, "name": "FENGYUN 1C DEB", "group": "fengyun-1c-debris", "lat": 6.583034252947119, "lon": 71.67460843224305, "alt_km": 846.3359308622121, "timestamp": "2025-12-26T12:57:39.563305+00:00", "meta": {"OBJECT_NAME": "FENGYUN 1C DEB", "OBJECT_ID": "1999-025EYR", "EPOCH": "2025-12-24T03:40:31.181088", "MEAN_MOTION": 14.26028974, "ECCENTRICITY": 0.00548774, "INCLINATION": 98.7621, "RA_OF_ASC_NODE": 70.308, "ARG_OF_PERICENTER": 190.2359, "MEAN_ANOMALY": 169.7707, "EPHEMERIS_TYPE": 0, "CLASSIFICATION_TYPE": "U", "NORAD_CAT_ID": 45526, "ELEMENT_SET_NO": 999, "REV_AT_EPOCH": 43539, "BSTAR": 0.001800182, "MEAN_MOTION_DOT": 4.324e-05, "MEAN_MOTION_DDOT": 0}, "tle": {"line1": "1 45526U 99025EYR 25358.15313867  .00004324  00000+0  18002-2 0  9999", "line2": "2 45526  98.7621  70.3080 0054877 190.2359 169.7707 14.26028974435399"}}, "geometry": {"type": "Point", "coordinates": [71.67460843224305, 6.583034252947119]}}, {"type": "Feature", "properties": {"norad_id": 45527, "name": "FENGYUN 1C DEB", "group": "fengyun-1c-debris", "lat": -56.69089952340546, "lon": 80.62664689050821, "alt_km": 834.1678221308157, "timestamp": "2025-12-26T12:57:39.563315+00:00", "meta": {"OBJECT_NAME": "FENGYUN 1C DEB", "OBJECT_ID": "1999-025EYS", "EPOCH": "2025-12-26T03:07:12.044928", "MEAN_MOTION": 14.24597719, "ECCENTRICITY": 0.0055822, "INCLINATION": 98.7379, "RA_OF_ASC_NODE": 66.683, "ARG_OF_PERICENTER": 187.7108, "MEAN_ANOMALY": 172.3219, "EPHEMERIS_TYPE": 0, "CLASSIFICATION_TYPE": "U", "NORAD_CAT_ID": 45527, "ELEMENT_SET_NO": 999, "REV_AT_EPOCH": 39770, "BSTAR": 0.0015544085, "MEAN_MOTION_DOT": 3.626e-05, "MEAN_MOTION_DDOT": 0}, "tle": {"line1": "1 45527U 99025EYS 25360.13000052  .00003626  00000+0  15544-2 0  9992", "line2": "2 45527  98.7379  66.6830 0055822 187.7108 172.3219 14.24597719397701"}}, "geometry": {"type": "Point", "coordinates": [80.62664689050821, -56.69089952340546]}}]}